[{"OBJECT_NAME":"2026-052E","OBJECT_ID":"2026-052E","EPOCH":"2026-04-12T20:13:39.902016","MEAN_MOTION":15.10663364,"ECCENTRICITY":0.0012077,"INCLINATION":97.5356,"RA_OF_ASC_NODE":178.6686,"ARG_OF_PERICENTER":170.9069,"MEAN_ANOMALY":189.2381,"EPHEMERIS_TYPE":0,"CLASSIFICATION_TYPE":"U","NORAD_CAT_ID":68202,"ELEMENT_SET_NO":999,"REV_AT_EPOCH":418,"BSTAR":0.00022183,"MEAN_MOTION_DOT":3.612e-5,"MEAN_MOTION_DDOT":0},{"OBJECT_NAME":"2026-052F","OBJECT_ID":"2026-052F","EPOCH":"2026-04-12T20:06:56.102976","MEAN_MOTION":15.10924464,"ECCENTRICITY":0.0011362,"INCLINATION":97.5346,"RA_OF_ASC_NODE":178.6765,"ARG_OF_PERICENTER":163.733,"MEAN_ANOMALY":196.4266,"EPHEMERIS_TYPE":0,"CLASSIFICATION_TYPE":"U","NORAD_CAT_ID":68203,"ELEMENT_SET_NO":999,"REV_AT_EPOCH":418,"BSTAR":0.00025909,"MEAN_MOTION_DOT":4.26e-5,"MEAN_MOTION_DDOT":0},{"OBJECT_NAME":"2026-052G","OBJECT_ID":"2026-052G","EPOCH":"2026-04-12T20:05:40.819200","MEAN_MOTION":15.10972023,"ECCENTRICITY":0.0010898,"INCLINATION":97.5353,"RA_OF_ASC_NODE":178.6731,"ARG_OF_PERICENTER":166.3147,"MEAN_ANOMALY":193.8381,"EPHEMERIS_TYPE":0,"CLASSIFICATION_TYPE":"U","NORAD_CAT_ID":68204,"ELEMENT_SET_NO":999,"REV_AT_EPOCH":418,"BSTAR":0.00025953,"MEAN_MOTION_DOT":4.272e-5,"MEAN_MOTION_DDOT":0},{"OBJECT_NAME":"KZ-11 R/B","OBJECT_ID":"2026-052H","EPOCH":"2026-04-12T21:40:11.684928","MEAN_MOTION":14.67989487,"ECCENTRICITY":0.0542216,"INCLINATION":97.339,"RA_OF_ASC_NODE":176.7647,"ARG_OF_PERICENTER":282.9448,"MEAN_ANOMALY":71.176,"EPHEMERIS_TYPE":0,"CLASSIFICATION_TYPE":"U","NORAD_CAT_ID":68205,"ELEMENT_SET_NO":999,"REV_AT_EPOCH":407,"BSTAR":0.00020072,"MEAN_MOTION_DOT":0.00013011,"MEAN_MOTION_DDOT":1.9883e-6},{"OBJECT_NAME":"2026-052J","OBJECT_ID":"2026-052J","EPOCH":"2026-04-12T21:10:55.437312","MEAN_MOTION":14.70344937,"ECCENTRICITY":0.0533302,"INCLINATION":97.3386,"RA_OF_ASC_NODE":176.7869,"ARG_OF_PERICENTER":282.8687,"MEAN_ANOMALY":71.3479,"EPHEMERIS_TYPE":0,"CLASSIFICATION_TYPE":"U","NORAD_CAT_ID":68206,"ELEMENT_SET_NO":999,"REV_AT_EPOCH":407,"BSTAR":0.00064992,"MEAN_MOTION_DOT":0.00044584,"MEAN_MOTION_DDOT":2.2801e-6},{"OBJECT_NAME":"STARLINK-36986","OBJECT_ID":"2026-053A","EPOCH":"2026-04-12T20:00:01.999008","MEAN_MOTION":15.51670576,"ECCENTRICITY":0.0002059,"INCLINATION":97.2851,"RA_OF_ASC_NODE":338.7478,"ARG_OF_PERICENTER":75.4641,"MEAN_ANOMALY":180.2095,"EPHEMERIS_TYPE":0,"CLASSIFICATION_TYPE":"U","NORAD_CAT_ID":68207,"ELEMENT_SET_NO":999,"REV_AT_EPOCH":550,"BSTAR":-0.019739,"MEAN_MOTION_DOT":-0.01064606,"MEAN_MOTION_DDOT":0},{"OBJECT_NAME":"STARLINK-37009","OBJECT_ID":"2026-053B","EPOCH":"2026-04-12T20:00:01.999008","MEAN_MOTION":15.53910311,"ECCENTRICITY":0.000179,"INCLINATION":97.2951,"RA_OF_ASC_NODE":338.7606,"ARG_OF_PERICENTER":103.3578,"MEAN_ANOMALY":200.3643,"EPHEMERIS_TYPE":0,"CLASSIFICATION_TYPE":"U","NORAD_CAT_ID":68208,"ELEMENT_SET_NO":999,"REV_AT_EPOCH":550,"BSTAR":-0.034631,"MEAN_MOTION_DOT":-0.01959296,"MEAN_MOTION_DDOT":0},{"OBJECT_NAME":"STARLINK-36948","OBJECT_ID":"2026-053C","EPOCH":"2026-04-12T20:00:01.999008","MEAN_MOTION":15.53972637,"ECCENTRICITY":0.0001447,"INCLINATION":97.2848,"RA_OF_ASC_NODE":338.7708,"ARG_OF_PERICENTER":88.887,"MEAN_ANOMALY":229.2213,"EPHEMERIS_TYPE":0,"CLASSIFICATION_TYPE":"U","NORAD_CAT_ID":68209,"ELEMENT_SET_NO":999,"REV_AT_EPOCH":539,"BSTAR":-0.018009,"MEAN_MOTION_DOT":-0.01056278,"MEAN_MOTION_DDOT":0},{"OBJECT_NAME":"STARLINK-37119","OBJECT_ID":"2026-053D","EPOCH":"2026-04-12T20:00:01.999008","MEAN_MOTION":15.54239927,"ECCENTRICITY":0.0001675,"INCLINATION":97.2862,"RA_OF_ASC_NODE":338.7755,"ARG_OF_PERICENTER":81.7166,"MEAN_ANOMALY":246.6552,"EPHEMERIS_TYPE":0,"CLASSIFICATION_TYPE":"U","NORAD_CAT_ID":68210,"ELEMENT_SET_NO":999,"REV_AT_EPOCH":550,"BSTAR":-0.018125,"MEAN_MOTION_DOT":-0.01072047,"MEAN_MOTION_DDOT":0},{"OBJECT_NAME":"STARLINK-37120","OBJECT_ID":"2026-053E","EPOCH":"2026-04-12T20:00:01.999008","MEAN_MOTION":15.54455398,"ECCENTRICITY":0.0001607,"INCLINATION":97.2847,"RA_OF_ASC_NODE":338.779,"ARG_OF_PERICENTER":82.3784,"MEAN_ANOMALY":254.8647,"EPHEMERIS_TYPE":0,"CLASSIFICATION_TYPE":"U","NORAD_CAT_ID":68211,"ELEMENT_SET_NO":999,"REV_AT_EPOCH":548,"BSTAR":-0.018219,"MEAN_MOTION_DOT":-0.01084859,"MEAN_MOTION_DDOT":0},{"OBJECT_NAME":"STARLINK-37117","OBJECT_ID":"2026-053F","EPOCH":"2026-04-12T20:00:01.999008","MEAN_MOTION":15.54896186,"ECCENTRICITY":0.0001589,"INCLINATION":97.2856,"RA_OF_ASC_NODE":338.7847,"ARG_OF_PERICENTER":78.9303,"MEAN_ANOMALY":272.3017,"EPHEMERIS_TYPE":0,"CLASSIFICATION_TYPE":"U","NORAD_CAT_ID":68212,"ELEMENT_SET_NO":999,"REV_AT_EPOCH":550,"BSTAR":-0.017671,"MEAN_MOTION_DOT":-0.01070737,"MEAN_MOTION_DDOT":0},{"OBJECT_NAME":"STARLINK-37116","OBJECT_ID":"2026-053G","EPOCH":"2026-04-12T20:00:01.999008","MEAN_MOTION":15.54905886,"ECCENTRICITY":0.0001706,"INCLINATION":97.2852,"RA_OF_ASC_NODE":338.7873,"ARG_OF_PERICENTER":92.9801,"MEAN_ANOMALY":263.2,"EPHEMERIS_TYPE":0,"CLASSIFICATION_TYPE":"U","NORAD_CAT_ID":68213,"ELEMENT_SET_NO":999,"REV_AT_EPOCH":550,"BSTAR":-0.017221,"MEAN_MOTION_DOT":-0.01046232,"MEAN_MOTION_DDOT":0},{"OBJECT_NAME":"STARLINK-35854","OBJECT_ID":"2026-053H","EPOCH":"2026-04-12T20:00:01.999008","MEAN_MOTION":15.55118071,"ECCENTRICITY":0.0002136,"INCLINATION":97.2861,"RA_OF_ASC_NODE":338.7904,"ARG_OF_PERICENTER":94.3952,"MEAN_ANOMALY":269.256,"EPHEMERIS_TYPE":0,"CLASSIFICATION_TYPE":"U","NORAD_CAT_ID":68214,"ELEMENT_SET_NO":999,"REV_AT_EPOCH":526,"BSTAR":-0.019849,"MEAN_MOTION_DOT":-0.01198622,"MEAN_MOTION_DDOT":0},{"OBJECT_NAME":"STARLINK-36272","OBJECT_ID":"2026-053J","EPOCH":"2026-04-12T20:00:01.999008","MEAN_MOTION":15.49216273,"ECCENTRICITY":0.0001719,"INCLINATION":97.2852,"RA_OF_ASC_NODE":338.5619,"ARG_OF_PERICENTER":89.0501,"MEAN_ANOMALY":109.9552,"EPHEMERIS_TYPE":0,"CLASSIFICATION_TYPE":"U","NORAD_CAT_ID":68215,"ELEMENT_SET_NO":999,"REV_AT_EPOCH":539,"BSTAR":-0.00039925,"MEAN_MOTION_DOT":-0.00021766,"MEAN_MOTION_DDOT":0},{"OBJECT_NAME":"STARLINK-37014","OBJECT_ID":"2026-053K","EPOCH":"2026-04-12T20:00:01.999008","MEAN_MOTION":15.55957878,"ECCENTRICITY":0.000184,"INCLINATION":97.2844,"RA_OF_ASC_NODE":338.8023,"ARG_OF_PERICENTER":87.4294,"MEAN_ANOMALY":303.5771,"EPHEMERIS_TYPE":0,"CLASSIFICATION_TYPE":"U","NORAD_CAT_ID":68216,"ELEMENT_SET_NO":999,"REV_AT_EPOCH":550,"BSTAR":-0.017238,"MEAN_MOTION_DOT":-0.01084924,"MEAN_MOTION_DDOT":0},{"OBJECT_NAME":"STARLINK-37011","OBJECT_ID":"2026-053L","EPOCH":"2026-04-12T20:00:01.999008","MEAN_MOTION":15.55128285,"ECCENTRICITY":0.0001934,"INCLINATION":97.2852,"RA_OF_ASC_NODE":338.7966,"ARG_OF_PERICENTER":91.8429,"MEAN_ANOMALY":285.3998,"EPHEMERIS_TYPE":0,"CLASSIFICATION_TYPE":"U","NORAD_CAT_ID":68217,"ELEMENT_SET_NO":999,"REV_AT_EPOCH":550,"BSTAR":-0.018675,"MEAN_MOTION_DOT":-0.01134721,"MEAN_MOTION_DDOT":0},{"OBJECT_NAME":"STARLINK-37108","OBJECT_ID":"2026-053M","EPOCH":"2026-04-12T20:00:01.999008","MEAN_MOTION":15.56495538,"ECCENTRICITY":0.0001876,"INCLINATION":97.2851,"RA_OF_ASC_NODE":338.8108,"ARG_OF_PERICENTER":89.763,"MEAN_ANOMALY":320.7703,"EPHEMERIS_TYPE":0,"CLASSIFICATION_TYPE":"U","NORAD_CAT_ID":68218,"ELEMENT_SET_NO":999,"REV_AT_EPOCH":550,"BSTAR":-0.017345,"MEAN_MOTION_DOT":-0.01111036,"MEAN_MOTION_DDOT":0}]
