2026-052E
1 68202U 26102.84281250  3.61200-5 2.21830-4 0 0                     
2 68202  97.5356 178.6686 0012077 170.9069 189.2381 15.10663364      
2026-052F
1 68203U 26102.83814815  4.26000-5 2.59090-4 0 0                     
2 68203  97.5346 178.6765 0011362 163.7330 196.4266 15.10924464      
2026-052G
1 68204U 26102.83726852  4.27200-5 2.59530-4 0 0                     
2 68204  97.5353 178.6731 0010898 166.3147 193.8381 15.10972023      
2026-052J
1 68206U 26102.88258102  4.45840-4 6.49920-4 0 0                     
2 68206  97.3386 176.7869 0533302 282.8687  71.3479 14.70344937      
STARLINK-36986
1 68207U 26102.83334491  1.06461-2 1.97390-2 0 0                     
2 68207  97.2851 338.7478 0002059  75.4641 180.2095 15.51670576      
STARLINK-37009
1 68208U 26102.83334491  1.95930-2 3.46310-2 0 0                     
2 68208  97.2951 338.7606 0001789 103.3578 200.3643 15.53910311      
STARLINK-36948
1 68209U 26102.83334491  1.05628-2 1.80090-2 0 0                     
2 68209  97.2848 338.7708 0001447  88.8870 229.2213 15.53972637      
STARLINK-37119
1 68210U 26102.83334491  1.07205-2 1.81250-2 0 0                     
2 68210  97.2862 338.7755 0001675  81.7166 246.6552 15.54239927      
STARLINK-37120
1 68211U 26102.83334491  1.08486-2 1.82190-2 0 0                     
2 68211  97.2847 338.7790 0001607  82.3784 254.8647 15.54455398      
STARLINK-37117
1 68212U 26102.83334491  1.07074-2 1.76710-2 0 0                     
2 68212  97.2856 338.7847 0001589  78.9303 272.3017 15.54896186      
STARLINK-37116
1 68213U 26102.83334491  1.04623-2 1.72210-2 0 0                     
2 68213  97.2852 338.7873 0001706  92.9801 263.2000 15.54905886      
STARLINK-35854
1 68214U 26102.83334491  1.19862-2 1.98490-2 0 0                     
2 68214  97.2861 338.7904 0002136  94.3952 269.2560 15.55118071      
STARLINK-36272
1 68215U 26102.83334491  2.17660-4 3.99250-4 0 0                     
2 68215  97.2852 338.5619 0001719  89.0501 109.9552 15.49216273      
STARLINK-37014
1 68216U 26102.83334491  1.08492-2 1.72380-2 0 0                     
2 68216  97.2844 338.8023 0001840  87.4294 303.5771 15.55957878      
STARLINK-37011
1 68217U 26102.83334491  1.13472-2 1.86750-2 0 0                     
2 68217  97.2852 338.7966 0001934  91.8429 285.3998 15.55128285      
STARLINK-37108
1 68218U 26102.83334491  1.11104-2 1.73450-2 0 0                     
2 68218  97.2851 338.8108 0001876  89.7630 320.7703 15.56495538      
KZ-11 R/B
1 68205U 26102.90290509  1.30110-4 2.00720-4 0 0                     
2 68205  97.3390 176.7647 0542216 282.9448  71.1760 14.67989487      
